IRIDIUM 166             
1 43570U 18061B   25124.52127966  .00000043  00000+0  84486-5 0  9998
2 43570  86.4003 227.4637 0002468 100.4670 259.6804 14.34217820354829
IRIDIUM 158             
1 43571U 18061C   25124.55933184  .00000142  00000+0  43719-4 0  9992
2 43571  86.4002 227.4574 0002142 100.6234 259.5203 14.34219223354805
IRIDIUM 165             
1 43572U 18061D   25123.81726915  .00000642  00000+0  22202-3 0  9991
2 43572  86.4006 227.8059 0002496  96.3838 263.7642 14.34214814354710
IRIDIUM 155             
1 43573U 18061E   25124.54664883  .00000205  00000+0  66185-4 0  9992
2 43573  86.4001 227.3909 0002196 103.9137 256.2303 14.34217902354799
IRIDIUM 154             
1 43574U 18061F   25124.52762061  .00000241  00000+0  78937-4 0  9996
2 43574  86.4005 227.5120 0002230  96.2750 263.8700 14.34218871354831
IRIDIUM 163             
1 43575U 18061G   25124.36905562  .00000166  00000+0  52353-4 0  9994
2 43575  86.4001 227.5065 0002057  96.3749 263.7681 14.34217347354780
IRIDIUM 156             
1 43576U 18061H   25124.55299182  .00000149  00000+0  46202-4 0  9997
2 43576  86.4001 227.4362 0002340 104.9123 255.2332 14.34218178354790
IRIDIUM 164             
1 43577U 18061J   25124.25489029  .00000113  00000+0  33353-4 0  9990
2 43577  86.4004 227.5948 0002514  95.9548 264.1934 14.34218355354804
